ORBCOMM FM33            
1 25983U 99065D   25075.74364015  .00003288  00000+0  10862-2 0  9994
2 25983  45.0274  78.3742 0010508 310.9064  49.0874 14.39637189322740
ORBCOMM FM36            
1 25984U 99065E   25075.65617705  .00003250  00000+0  11168-2 0  9991
2 25984  45.0381 169.2981 0005023 212.5257 147.5283 14.37734933321102
ORBCOMM FM35            
1 25985U 99065F   25075.64030392  .00002766  00000+0  97643-3 0  9996
2 25985  45.0383 173.6869 0004847 271.2734  88.7559 14.36759307321477
ORBCOMM FM34            
1 25986U 99065G   25075.67802644  .00002738  00000+0  96595-3 0  9991
2 25986  45.0379 174.0050 0005772 236.7900 123.2395 14.36804703321596
ORBCOMM FM38            
1 33060U 08031A   25075.92236056  .00005699  00000+0  76003-3 0  9993
2 33060  48.4407  34.7850 0005682 358.1868   1.9026 14.80681919901069
ORBCOMM FM41            
1 33061U 08031B   25075.97629727  .00005624  00000+0  75718-3 0  9990
2 33061  48.4439  41.9967 0004977 343.2564  61.7403 14.80299183900574
ORBCOMM FM29            
1 33062U 08031C   25075.96495410  .00005821  00000+0  78150-3 0  9992
2 33062  48.4389  49.9630 0006791 343.0112  55.8074 14.80358580900482
ORBCOMM FM39            
1 33063U 08031D   25075.96756145  .00004631  00000+0  64787-3 0  9997
2 33063  48.4391  73.2324 0007866 317.4471  42.5834 14.78990035900147
